[ {"name": "STARLINK-36050", "line1": "1 66602U 25270Q   26156.24868493  .00020744  00000+0  76147-3 0  9994", "line2": "2 66602  42.9996 281.9773 0001160 285.5389  74.5334 15.27568797 30990"}, {"name": "STARLINK-36048", "line1": "1 66603U 25270R   26156.07806935  .00026815  00000+0  97810-3 0  9994", "line2": "2 66603  43.0039 282.4134 0002435 270.5874  89.4698 15.27656979 30973"}, {"name": "STARLINK-35977", "line1": "1 66604U 25270S   26156.78574720  .00039271  00000+0  14257-2 0  9990", "line2": "2 66604  43.0020 278.2633 0001460 277.2211  82.8475 15.27656016 31183"}, {"name": "STARLINK-36052", "line1": "1 66605U 25270T   26156.63071714  .00018224  00000+0  66994-3 0  9991", "line2": "2 66605  42.9983 279.6763 0001858 280.3202  79.7440 15.27588726 31151"}, {"name": "STARLINK-36063", "line1": "1 66606U 25270U   26156.60630628  .00017881  00000+0  65759-3 0  9990", "line2": "2 66606  43.0032 279.4934 0002314 286.6904  73.3693 15.27585867 31156"}, {"name": "STARLINK-35993", "line1": "1 66607U 25270V   26156.62814752  .00024975  00000+0  91339-3 0  9990", "line2": "2 66607  43.0041 279.6625 0000468 183.1344 176.9505 15.27602664 31059"}, {"name": "STARLINK-36036", "line1": "1 66608U 25270W   26156.07935777  .00025896  00000+0  94596-3 0  9992", "line2": "2 66608  43.0044 282.4186 0001611 294.8745  65.1939 15.27624952 30911"}, {"name": "STARLINK-36034", "line1": "1 66609U 25270X   26152.72550455  .00007712  00000+0  28957-3 0  9992", "line2": "2 66609  43.0023 301.9670 0003410 253.8578 106.1898 15.27567936 30392"}, {"name": "STARLINK-35680", "line1": "1 66610U 25270Y   26156.62044187  .00019119  00000+0  70249-3 0  9992", "line2": "2 66610  42.9994 279.6015 0001259 281.4522  78.6188 15.27580546 31262"}, {"name": "STARLINK-35583", "line1": "1 66611U 25270Z   26156.61272905  .00018237  00000+0  67020-3 0  9996", "line2": "2 66611  43.0026 279.5446 0001489 274.1174  85.9508 15.27599371 31268"}, {"name": "STARLINK-36039", "line1": "1 66612U 25270AA  26156.63329466  .00029775  00000+0  10870-2 0  9993", "line2": "2 66612  42.9995 279.6997 0001347 275.7132  84.3566 15.27586144 31157"}, {"name": "STARLINK-36037", "line1": "1 66613U 25270AB  26156.62300809  .00021157  00000+0  77548-3 0  9995", "line2": "2 66613  42.9974 279.6221 0000458 176.5122 183.5733 15.27608009 31157"}, {"name": "STARLINK-36040", "line1": "1 66614U 25270AC  26156.44998062  .00034220  00000+0  12471-2 0  9998", "line2": "2 66614  43.0019 280.9035 0001505 261.2772  98.7910 15.27583647 30967"}, {"name": "STARLINK-35988", "line1": "1 66615U 25270AD  26156.61144672  .00019394  00000+0  71202-3 0  9991", "line2": "2 66615  43.0008 279.5354 0000550 279.5104  80.5685 15.27599674 30992"}, {"name": "STARLINK-35391", "line1": "1 66616U 25270AE  26156.63843882  .00017073  00000+0  62851-3 0  9995", "line2": "2 66616  43.0011 279.7339 0001597 280.0231  80.0440 15.27580334 31260"}, {"name": "STARLINK-35940", "line1": "1 66617U 25271A   26156.53034906  .00030321  00000+0  10315-2 0  9993", "line2": "2 66617  53.1587  92.0572 0001211  86.4096 273.7043 15.30204646 31012"}, {"name": "STARLINK-35970", "line1": "1 66618U 25271B   26156.09941294  .00038339  00000+0  12990-2 0  9990", "line2": "2 66618  53.1596  93.6214 0001394 102.4027 257.7130 15.30222131 30958"}, {"name": "STARLINK-35951", "line1": "1 66619U 25271C   26156.53457282  .00018776  00000+0  64448-3 0  9998", "line2": "2 66619  53.1589  92.0796 0001450  86.1967 273.9199 15.30198807 31018"}, {"name": "STARLINK-35936", "line1": "1 66620U 25271D   26156.54512263  .00019151  00000+0  65705-3 0  9997", "line2": "2 66620  53.1597  92.1464 0001258  90.1433 269.9712 15.30200499 31018"}, {"name": "STARLINK-35847", "line1": "1 66621U 25271E   26156.53667793  .00013274  00000+0  45940-3 0  9995", "line2": "2 66621  53.1599  92.0836 0001605  67.2921 292.8249 15.30208036 31011"}, {"name": "STARLINK-35950", "line1": "1 66622U 25271F   26156.53245798  .00017424  00000+0  59906-3 0  9991", "line2": "2 66622  53.1600  92.0673 0001172  91.4501 268.6634 15.30198312 31010"}, {"name": "STARLINK-35920", "line1": "1 66623U 25271G   26156.66668981  .00065575  00000+0  19389-2 0  9999", "line2": "2 66623  53.1591  89.3578 0000857 104.3345 257.0603 15.34336313  5807"}, {"name": "STARLINK-35927", "line1": "1 66624U 25271H   26156.10047019  .00030939  00000+0  10522-2 0  9998", "line2": "2 66624  53.1599  93.6410 0001308  68.7962 291.3178 15.30205801 30954"}, {"name": "STARLINK-35929", "line1": "1 66625U 25271J   26156.52146446  .00035035  00000+0  10418-2 0  9995", "line2": "2 66625  53.1588  89.8761 0001221  97.9599 262.1542 15.34441572 31035"}, {"name": "STARLINK-35902", "line1": "1 66626U 25271K   26156.54300672  .00028699  00000+0  97667-3 0  9991", "line2": "2 66626  53.1616  92.1322 0001552 101.1330 258.9846 15.30222663 31018"}, {"name": "STARLINK-35904", "line1": "1 66627U 25271L   26156.52612575  .00020534  00000+0  70341-3 0  9998", "line2": "2 66627  53.1581  92.0240 0001176  78.3914 281.7219 15.30204506 30971"}, {"name": "STARLINK-35862", "line1": "1 66628U 25271M   26156.54670232  .00038250  00000+0  11368-2 0  9992", "line2": "2 66628  53.1610  90.0292 0000384 285.4439  74.6521 15.34418772 31043"}, {"name": "STARLINK-35949", "line1": "1 66630U 25271P   26156.07182944  .00032153  00000+0  95906-3 0  9998", "line2": "2 66630  53.1595  92.0514 0002021 158.7297 201.3790 15.34386523 30977"}, {"name": "STARLINK-35965", "line1": "1 66631U 25271Q   26156.66668981  .00077771  00000+0  22934-2 0  9999", "line2": "2 66631  53.1583  89.1696 0001168 100.0785 354.3462 15.34341264  5875"}, {"name": "STARLINK-35973", "line1": "1 66632U 25271R   26155.10741249  .00032283  00000+0  96142-3 0  9999", "line2": "2 66632  53.1600  96.6906 0001457 116.4587 243.6565 15.34434996 30771"}]