OBJECT_NAME,OBJECT_ID,EPOCH,MEAN_MOTION,ECCENTRICITY,INCLINATION,RA_OF_ASC_NODE,ARG_OF_PERICENTER,MEAN_ANOMALY,EPHEMERIS_TYPE,CLASSIFICATION_TYPE,NORAD_CAT_ID,ELEMENT_SET_NO,REV_AT_EPOCH,BSTAR,MEAN_MOTION_DOT,MEAN_MOTION_DDOT
STARLINK-36050,2025-270Q,2026-06-05T05:58:06.377952,15.27568797,.000116,42.9996,281.9773,285.5389,74.5334,0,U,66602,999,3099,.76147E-3,.20744E-3,0
STARLINK-36048,2025-270R,2026-06-05T01:52:25.191840,15.27656979,.00024352,43.0039,282.4134,270.5874,89.4698,0,U,66603,999,3097,.97809975E-3,.26815E-3,0
STARLINK-35977,2025-270S,2026-06-05T18:51:28.558080,15.27656016,.00014602,43.0020,278.2633,277.2211,82.8475,0,U,66604,999,3118,.14257025E-2,.39271E-3,0
STARLINK-36052,2025-270T,2026-06-05T15:08:13.960896,15.27588726,.00018584,42.9983,279.6763,280.3202,79.7440,0,U,66605,999,3115,.66994088E-3,.18224E-3,0
STARLINK-36063,2025-270U,2026-06-05T14:33:04.862592,15.27585867,.00023147,43.0032,279.4934,286.6904,73.3693,0,U,66606,999,3115,.65758765E-3,.17881E-3,0
STARLINK-35993,2025-270V,2026-06-05T15:04:31.945728,15.27602664,.00004686,43.0041,279.6625,183.1344,176.9505,0,U,66607,999,3105,.91339496E-3,.24975E-3,0
STARLINK-36036,2025-270W,2026-06-05T01:54:16.511328,15.27624952,.00016118,43.0044,282.4186,294.8745,65.1939,0,U,66608,999,3091,.94596317E-3,.25896E-3,0
STARLINK-36034,2025-270X,2026-06-01T17:24:43.593120,15.27567936,.00034106,43.0023,301.9670,253.8578,106.1898,0,U,66609,999,3039,.28957402E-3,.7712E-4,0
STARLINK-35680,2025-270Y,2026-06-05T14:53:26.177568,15.27580546,.00012596,42.9994,279.6015,281.4522,78.6188,0,U,66610,999,3126,.70248863E-3,.19119E-3,0
STARLINK-35583,2025-270Z,2026-06-05T14:42:19.789920,15.27599371,.00014895,43.0026,279.5446,274.1174,85.9508,0,U,66611,999,3126,.67019811E-3,.18237E-3,0
STARLINK-36039,2025-270AA,2026-06-05T15:11:56.658624,15.27586144,.00013477,42.9995,279.6997,275.7132,84.3566,0,U,66612,999,3115,.10869721E-2,.29775E-3,0
STARLINK-36037,2025-270AB,2026-06-05T14:57:07.898976,15.27608009,.0000458,42.9974,279.6221,176.5122,183.5733,0,U,66613,999,3115,.77548241E-3,.21157E-3,0
STARLINK-36040,2025-270AC,2026-06-05T10:47:58.325568,15.27583647,.00015051,43.0019,280.9035,261.2772,98.7910,0,U,66614,999,3096,.12471336E-2,.3422E-3,0
STARLINK-35988,2025-270AD,2026-06-05T14:40:28.996608,15.27599674,.00005502,43.0008,279.5354,279.5104,80.5685,0,U,66615,999,3099,.71202002E-3,.19394E-3,0
STARLINK-35391,2025-270AE,2026-06-05T15:19:21.114048,15.27580334,.00015972,43.0011,279.7339,280.0231,80.0440,0,U,66616,999,3126,.62850929E-3,.17073E-3,0
STARLINK-35940,2025-271A,2026-06-05T12:43:42.158784,15.30204646,.00012116,53.1587,92.0572,86.4096,273.7043,0,U,66617,999,3101,.10315199E-2,.30321E-3,0
STARLINK-35970,2025-271B,2026-06-05T02:23:09.278016,15.30222131,.00013947,53.1596,93.6214,102.4027,257.7130,0,U,66618,999,3095,.12990087E-2,.38339E-3,0
STARLINK-35951,2025-271C,2026-06-05T12:49:47.091648,15.30198807,.00014502,53.1589,92.0796,86.1967,273.9199,0,U,66619,999,3101,.64447888E-3,.18776E-3,0
STARLINK-35936,2025-271D,2026-06-05T13:04:58.595232,15.30200499,.00012582,53.1597,92.1464,90.1433,269.9712,0,U,66620,999,3101,.65705125E-3,.19151E-3,0
STARLINK-35847,2025-271E,2026-06-05T12:52:48.973152,15.30208036,.00016053,53.1599,92.0836,67.2921,292.8249,0,U,66621,999,3101,.45939536E-3,.13274E-3,0
STARLINK-35950,2025-271F,2026-06-05T12:46:44.369472,15.30198312,.00011721,53.1600,92.0673,91.4501,268.6634,0,U,66622,999,3101,.59906142E-3,.17424E-3,0
STARLINK-35920,2025-271G,2026-06-05T16:00:01.999584,15.34336313,.00008576,53.1591,89.3578,104.3345,257.0603,0,U,66623,999,580,.19389368E-2,.65575E-3,0
STARLINK-35927,2025-271H,2026-06-05T02:24:40.624416,15.30205801,.00013088,53.1599,93.6410,68.7962,291.3178,0,U,66624,999,3095,.10521988E-2,.30939E-3,0
STARLINK-35929,2025-271J,2026-06-05T12:30:54.529344,15.34441572,.00012212,53.1588,89.8761,97.9599,262.1542,0,U,66625,999,3103,.10418313E-2,.35035E-3,0
STARLINK-35902,2025-271K,2026-06-05T13:01:55.780608,15.30222663,.00015521,53.1616,92.1322,101.1330,258.9846,0,U,66626,999,3101,.97667468E-3,.28699E-3,0
STARLINK-35904,2025-271L,2026-06-05T12:37:37.264800,15.30204506,.00011764,53.1581,92.0240,78.3914,281.7219,0,U,66627,999,3097,.70341285E-3,.20534E-3,0
STARLINK-35862,2025-271M,2026-06-05T13:07:15.080448,15.34418772,.00003842,53.1610,90.0292,285.4439,74.6521,0,U,66628,999,3104,.11367529E-2,.3825E-3,0
STARLINK-35949,2025-271P,2026-06-05T01:43:26.063616,15.34386523,.0002021,53.1595,92.0514,158.7297,201.3790,0,U,66630,999,3097,.95906E-3,.32153E-3,0
STARLINK-35965,2025-271Q,2026-06-05T16:00:01.999584,15.34341264,.00011687,53.1583,89.1696,100.0785,354.3462,0,U,66631,999,587,.22934233E-2,.77771E-3,0
STARLINK-35973,2025-271R,2026-06-04T02:34:40.439136,15.34434996,.0001457,53.1600,96.6906,116.4587,243.6565,0,U,66632,999,3077,.96142E-3,.32283E-3,0
